DMSP 5D-3 F16 (USA 172) 
1 28054U 03048A   26183.86607154  .00000007  00000+0  27128-4 0  9991
2 28054  98.9886 207.7978 0008194 101.2546 309.5150 14.14484357171700
METEOSAT-9 (MSG-2)      
1 28912U 05049B   26183.76303863  .00000130  00000+0  00000+0 0  9998
2 28912   9.3943  54.0128 0002566 359.4901 187.7563  1.00267373  7151
DMSP 5D-3 F17 (USA 191) 
1 29522U 06050A   26183.86759188  .00000034  00000+0  39974-4 0  9995
2 29522  98.7380 190.1168 0010467  17.8620 342.2919 14.14995026 14641
FENGYUN 3A              
1 32958U 08026A   26183.83562919  .00000090  00000+0  63361-4 0  9997
2 32958  98.6885 124.3762 0009881  83.5691 276.6610 14.19574446937626
GOES 14                 
1 35491U 09033A   26183.82267793 -.00000329  00000+0  00000+0 0  9994
2 35491   1.7279  82.8654 0002229  26.5013 240.2997  1.00105313  6749
DMSP 5D-3 F18 (USA 210) 
1 35951U 09057A   26183.83998325  .00000258  00000+0  15658-3 0  9993
2 35951  98.9045 164.5756 0010493 201.0770 158.9972 14.14905532861806
EWS-G2 (GOES 15)        
1 36411U 10008A   26183.86958038  .00000031  00000+0  00000+0 0  9993
2 36411   1.3182  82.6350 0005372  46.1653 168.6231  1.00268401 59797
COMS 1                  
1 36744U 10032A   26183.84193179 -.00000092  00000+0  00000+0 0  9992
2 36744   4.8428  75.1721 0011766  13.9478 145.9526  0.99169046 51246
FENGYUN 3B              
1 37214U 10059A   26184.71977197  .00000210  00000+0  13170-3 0  9998
2 37214  98.9607 230.8039 0022749 137.7128 330.6883 14.14844885809764
SUOMI NPP               
1 37849U 11061A   26184.34086319  .00000066  00000+0  52582-4 0  9992
2 37849  98.7955 125.1067 0000668 305.1704  54.9409 14.19520652760737
METEOSAT-10 (MSG-3)     
1 38552U 12035B   26183.29748566  .00000001  00000+0  00000+0 0  9990
2 38552   4.7052  60.9470 0001613  15.2569 311.3560  1.00269475 51007
METOP-B                 
1 38771U 12049A   26183.81641536  .00000135  00000+0  81600-4 0  9993
2 38771  98.6496 235.0033 0001303 327.6021  32.5076 14.21443713715482
INSAT-3D                
1 39216U 13038B   26183.85162303 -.00000329  00000+0  00000+0 0  9997
2 39216   1.9642  82.3574 0001056  15.1644 259.4386  1.00268722 47238
FENGYUN 3C              
1 39260U 13052A   26184.65206240  .00000084  00000+0  63839-4 0  9991
2 39260  98.4996 157.7715 0014258 340.8099  19.2538 14.15758789660895
METEOR-M 2              
1 40069U 14037A   26184.61684336  .00000149  00000+0  87405-4 0  9993
2 40069  98.5123 159.7740 0005887   1.7412 358.3785 14.21466375621653
HIMAWARI-8              
1 40267U 14060A   26183.85560351 -.00000265  00000+0  00000+0 0  9995
2 40267   0.0157   5.8561 0001055 102.2100 261.5191  1.00271871 42914
FENGYUN 2G              
1 40367U 14090A   26184.60033265 -.00000292  00000+0  00000+0 0  9992
2 40367   5.6782  72.6217 0003598 150.5390  14.1289  1.00266282 42168
METEOSAT-11 (MSG-4)     
1 40732U 15034A   26183.79834770  .00000071  00000+0  00000+0 0  9990
2 40732   3.2395  71.0127 0002235 349.1023 157.4441  1.00267972  7379
ELEKTRO-L 2             
1 41105U 15074A   26184.43514245 -.00000109  00000+0  00000+0 0  9996
2 41105   6.7323  70.3254 0000658 244.6432 108.5967  1.00273590 38665
SENTINEL-3A             
1 41335U 16011A   26183.78540398  .00000136  00000+0  74151-4 0  9990
2 41335  98.6243 250.9446 0001425  94.5446 265.5897 14.26737056540286
INSAT-3DR               
1 41752U 16054A   26183.45463633 -.00000066  00000+0  00000+0 0  9990
2 41752   0.1421  85.9447 0010094 186.2693 245.9301  1.00272241 35972
HIMAWARI-9              
1 41836U 16064A   26183.69547150 -.00000265  00000+0  00000+0 0  9998
2 41836   0.0302 267.9360 0001438 225.4185 178.4790  1.00268231 35361
GOES 16                 
1 41866U 16071A   26183.70436984 -.00000080  00000+0  00000+0 0  9998
2 41866   0.3771  85.5912 0000562  33.2401 310.7945  1.00272031 35251
FENGYUN 4A              
1 41882U 16077A   26184.53385043 -.00000346  00000+0  00000+0 0  9998
2 41882   2.3619  80.1088 0007934 157.9627 359.4201  1.00275570 35099
CYGFM05                 
1 41884U 16078A   26183.63181250  .00025116  00000+0  33165-3 0  9998
2 41884  34.9557 158.2652 0008067 285.0788  74.9044 15.57329564531169
CYGFM04                 
1 41885U 16078B   26183.87301262  .00035933  00000+0  39010-3 0  9995
2 41885  34.9318 123.5523 0006484 322.0141  38.0127 15.62401888531454
CYGFM02                 
1 41886U 16078C   26183.84296227  .00041508  00000+0  39734-3 0  9995
2 41886  34.9400 117.8213 0007402 325.5179  34.5068 15.65546274531625
CYGFM01                 
1 41887U 16078D   26183.61367891  .00025659  00000+0  32997-3 0  9990
2 41887  34.9387 159.3160 0007978 279.6825  80.2998 15.58029354531118
CYGFM08                 
1 41888U 16078E   26183.29040917  .00031616  00000+0  36529-3 0  9997
2 41888  34.9423 140.6357 0008715 306.3717  53.6204 15.60797506531331
CYGFM07                 
1 41890U 16078G   26183.24860683  .00031773  00000+0  36586-3 0  9992
2 41890  34.9439 129.2429 0007032 318.0003  42.0183 15.60901001531350
CYGFM03                 
1 41891U 16078H   26183.85925428  .00034547  00000+0  39723-3 0  9997
2 41891  34.9396 127.1049 0006871 310.3425  49.6700 15.60926669531424
